H1 CPF  1  DLR 2021 05 10 10  6302 technosat            
H2  1704205 6203    42829 2021 05 10 00 00 00 2021 05 17 00 00 00    60 1 1  0 0 0
H9
10 0 59350  14400.000000  0       -201356.987       2330075.040      -6568228.750
10 0 59350  14460.000000  0        -47845.014       2732532.540      -6414572.054
10 0 59350  14520.000000  0        109333.783       3122170.030      -6233815.531
10 0 59350  14580.000000  0        269400.581       3497322.235      -6026718.136
10 0 59350  14640.000000  0        431549.900       3856390.573      -5794149.658
10 0 59350  14700.000000  0        594953.528       4197850.029      -5537087.349
10 0 59350  14760.000000  0        758764.620       4520255.779      -5256612.070
10 0 59350  14820.000000  0        922121.961       4822249.499      -4953903.993
10 0 59350  14880.000000  0       1084154.366       5102565.342      -4630237.839
10 0 59350  14940.000000  0       1243985.199       5360035.471      -4286977.646
10 0 59350  15000.000000  0       1400736.960       5593595.158      -3925571.174
10 0 59350  15060.000000  0       1553535.939       5802287.441      -3547543.925
10 0 59350  15120.000000  0       1701516.906       5985267.331      -3154492.810
10 0 59350  15180.000000  0       1843827.821       6141805.529      -2748079.438
10 0 59350  15240.000000  0       1979634.533       6271291.611      -2330023.089
10 0 59350  15300.000000  0       2108125.438       6373236.669      -1902093.366
10 0 59350  15360.000000  0       2228516.072       6447275.350      -1466102.578
10 0 59350  15420.000000  0       2340053.584       6493167.300      -1023897.897
10 0 59350  15480.000000  0       2442021.081       6510797.992       -577353.357
10 0 59350  15540.000000  0       2533741.829       6500178.949       -128361.706
10 0 59350  15600.000000  0       2614583.250       6461447.348        321173.815
10 0 59350  15660.000000  0       2683960.719       6394865.031        769347.725
10 0 59350  15720.000000  0       2741341.133       6300816.947       1214260.587
10 0 59350  15780.000000  0       2786246.227       6179808.971       1654027.261
10 0 59350  15840.000000  0       2818255.615       6032465.167       2086785.062
10 0 59350  15900.000000  0       2837009.559       5859524.509       2510701.807
10 0 59350  15960.000000  0       2842211.448       5661837.054       2923983.726
10 0 59350  16020.000000  0       2833629.938       5440359.571       3324883.169
10 0 59350  16080.000000  0       2811100.777       5196150.732       3711706.036
10 0 59350  16140.000000  0       2774528.297       4930365.916       4082819.011
10 0 59350  16200.000000  0       2723886.523       4644251.464       4436656.568
10 0 59350  16260.000000  0       2659219.823       4339138.438       4771727.538
10 0 59350  16320.000000  0       2580643.248       4016436.146       5086621.129
10 0 59350  16380.000000  0       2488342.605       3677625.473       5380012.639
10 0 59350  16440.000000  0       2382574.190       3324251.926       5650668.804
10 0 59350  16500.000000  0       2263664.201       2957918.492       5897452.740
10 0 59350  16560.000000  0       2132007.772       2580278.302       6119328.559
10 0 59350  16620.000000  0       1988067.648       2193027.061       6315365.523
10 0 59350  16680.000000  0       1832372.533       1797895.344       6484741.705
10 0 59350  16740.000000  0       1665515.126       1396640.838       6626747.161
10 0 59350  16800.000000  0       1488149.833        991040.542       6740786.641
10 0 59350  16860.000000  0       1300990.207        582883.015       6826381.830
10 0 59350  16920.000000  0       1104806.121        173960.663       6883173.225
10 0 59350  16980.000000  0        900420.634       -233938.011       6910921.647
10 0 59350  17040.000000  0        688706.569       -639036.218       6909509.234
10 0 59350  17100.000000  0        470582.835      -1039576.533       6878939.873
10 0 59350  17160.000000  0        247010.475      -1433828.420       6819339.237
10 0 59350  17220.000000  0         18988.492      -1820095.641       6730954.323
10 0 59350  17280.000000  0       -212450.563      -2196723.495       6614152.545
10 0 59350  17340.000000  0       -446245.205      -2562105.911       6469420.324
10 0 59350  17400.000000  0       -681309.758      -2914692.262       6297361.150
10 0 59350  17460.000000  0       -916539.250      -3252993.883       6098693.256
10 0 59350  17520.000000  0      -1150814.453      -3575590.377       5874246.919
10 0 59350  17580.000000  0      -1383007.125      -3881135.660       5624961.331
10 0 59350  17640.000000  0      -1611985.400      -4168363.726       5351881.025
10 0 59350  17700.000000  0      -1836619.292      -4436094.120       5056151.820
10 0 59350  17760.000000  0      -2055786.272      -4683237.058       4739016.283
10 0 59350  17820.000000  0      -2268376.905      -4908798.155       4401808.761
10 0 59350  17880.000000  0      -2473300.494      -5111882.741       4045949.908
10 0 59350  17940.000000  0      -2669490.661      -5291699.687       3672940.778
10 0 59350  18000.000000  0      -2855910.879      -5447564.721       3284356.557
10 0 59350  18060.000000  0      -3031559.903      -5578903.261       2881839.977
10 0 59350  18120.000000  0      -3195477.116      -5685252.770       2467094.389
10 0 59350  18180.000000  0      -3346747.717      -5766264.598       2041876.515
10 0 59350  18240.000000  0      -3484507.758      -5821705.283       1607988.922
10 0 59350  18300.000000  0      -3607948.967      -5851457.285       1167272.233
10 0 59350  18360.000000  0      -3716323.314      -5855519.156        721597.136
10 0 59350  18420.000000  0      -3808947.333      -5834005.154        272856.260
10 0 59350  18480.000000  0      -3885206.146      -5787144.314       -177044.126
10 0 59350  18540.000000  0      -3944557.153      -5715278.925       -626192.500
10 0 59350  18600.000000  0      -3986533.371      -5618862.433      -1072680.512
10 0 59350  18660.000000  0      -4010746.394      -5498456.789      -1514611.390
10 0 59350  18720.000000  0      -4016888.964      -5354729.256      -1950108.274
10 0 59350  18780.000000  0      -4004737.140      -5188448.718      -2377322.448
10 0 59350  18840.000000  0      -3974152.024      -5000481.482      -2794441.417
10 0 59350  18900.000000  0      -3925081.056      -4791786.639      -3199696.765
10 0 59350  18960.000000  0      -3857558.870      -4563411.018      -3591371.779
10 0 59350  19020.000000  0      -3771707.723      -4316483.747      -3967808.780
10 0 59350  19080.000000  0      -3667737.494      -4052210.501      -4327416.149
10 0 59350  19140.000000  0      -3545945.272      -3771867.426      -4668675.056
10 0 59350  19200.000000  0      -3406714.486      -3476794.763      -4990145.812
10 0 59350  19260.000000  0      -3250513.639      -3168390.243      -5290473.806
10 0 59350  19320.000000  0      -3077894.636      -2848102.287      -5568395.048
10 0 59350  19380.000000  0      -2889490.725      -2517423.066      -5822741.277
10 0 59350  19440.000000  0      -2686014.070      -2177881.450      -6052444.686
10 0 59350  19500.000000  0      -2468252.909      -1831035.810      -6256542.214
10 0 59350  19560.000000  0      -2237068.341      -1478466.772      -6434179.301
10 0 59350  19620.000000  0      -1993390.810      -1121769.980      -6584613.185
10 0 59350  19680.000000  0      -1738216.263       -762548.851      -6707215.710
10 0 59350  19740.000000  0      -1472602.040       -402407.409      -6801475.645
10 0 59350  19800.000000  0      -1197662.524        -42943.222      -6867000.572
10 0 59350  19860.000000  0       -914564.481        314259.566      -6903518.403
10 0 59350  19920.000000  0       -624522.113        667637.129      -6910878.422
10 0 59350  19980.000000  0       -328791.889       1015652.758      -6889051.791
10 0 59350  20040.000000  0        -28667.205       1356803.395      -6838131.551
10 0 59350  20100.000000  0        274527.112       1689625.973      -6758332.359
10 0 59350  20160.000000  0        579440.619       2012703.715      -6649989.771
10 0 59350  20220.000000  0        884703.308       2324672.148      -6513558.880
10 0 59350  20280.000000  0       1188931.680       2624224.806      -6349612.497
10 0 59350  20340.000000  0       1490734.916       2910118.758      -6158838.944
10 0 59350  20400.000000  0       1788721.206       3181179.811      -5942039.324
10 0 59350  20460.000000  0       2081504.139       3436307.341      -5700124.357
10 0 59350  20520.000000  0       2367709.124       3674478.820      -5434110.802
10 0 59350  20580.000000  0       2645979.827       3894754.051      -5145117.437
10 0 59350  20640.000000  0       2914984.628       4096279.036      -4834360.589
10 0 59350  20700.000000  0       3173423.047       4278289.472      -4503149.219
10 0 59350  20760.000000  0       3420032.092       4440113.816      -4152879.564
10 0 59350  20820.000000  0       3653592.485       4581175.914      -3785029.413
10 0 59350  20880.000000  0       3872934.816       4700997.227      -3401151.997
10 0 59350  20940.000000  0       4076945.518       4799198.554      -3002869.412
10 0 59350  21000.000000  0       4264572.535       4875501.241      -2591865.757
10 0 59350  21060.000000  0       4434830.764       4929727.957      -2169880.036
10 0 59350  21120.000000  0       4586807.281       4961803.042      -1738698.777
10 0 59350  21180.000000  0       4719666.306       4971752.355      -1300148.325
10 0 59350  21240.000000  0       4832653.770       4959702.516       -856086.902
10 0 59350  21300.000000  0       4925101.433       4925879.685       -408396.535
10 0 59350  21360.000000  0       4996430.618       4870607.861         41025.101
10 0 59350  21420.000000  0       5046155.510       4794306.727        490272.904
10 0 59350  21480.000000  0       5073886.061       4697489.087        937442.582
10 0 59350  21540.000000  0       5079330.473       4580757.830       1380638.919
99
